#dP2021  7 30  0  0  0.00000000      96 __u+U ITR00 EXT  IAC
## 2168 432000.00000000   900.00000000 59425 0.0000000000000
+  117   C06C07C08C09C10C11C12C13C14C16C19C20C21C22C23C24C25
+        C26C27C28C29C30C32C33C34C35C36C37C38C39C40C41C42C43
+        C44C45C46E01E02E03E04E05E07E08E09E11E12E13E14E15E18
+        E19E21E24E25E26E27E30E31E33E36G01G02G03G04G05G06G07
+        G08G09G10G11G12G13G14G15G16G17G18G19G20G21G22G23G24
+        G25G26G27G28G29G30G31G32J01J02J03R01R02R03R04R05R07
+        R08R09R11R12R13R14R15R16R17R18R19R20R21R22R24  0  0
++         9  7 10  7  9  8  8 11  9  8  8  8  9  7  8  8  9
++         8  9  9  9  9 10  9  7  8  9  8 11 11 11 10  9 10
++        10  8  8  7  7  9  7  8  8  8  8  8  7  7  7  7  7
++         8  8  8  8  8  9  9  8  8  8  7  7  7  7  7  7  8
++         9  7  7  7  8  8  7  8  7  7  7  8  8  8  8  9  8
++         7  8  8  7  7  8  7  8 14 10 10  9  8  8  8  9  6
++         8  9  7  8  8  7  9  8  8  8  8  9  8  9  9  0  0
%c M  cc GPS ccc cccc cccc cccc cccc ccccc ccccc ccccc ccccc
%c cc cc ccc ccc cccc cccc cccc cccc ccccc ccccc ccccc ccccc
%f  0.0000000  0.000000000  0.00000000000  0.000000000000000
%f  0.0000000  0.000000000  0.00000000000  0.000000000000000
%i    0    0    0    0      0      0      0      0         0
%i    0    0    0    0      0      0      0      0         0
/* IAC                                ULTRA-RAPID PREDICTION
/* S/V CLOCKS ARE ALIGNED TO GNSS TIME                      
/* G:C1WC2W R:C1PC2P E:C1XC5X C:C2IC6I J:C1CC2S             
/* PCV:IGS14_2163 OL/AL:FES2004  NONE     YN ORB:CoN CLK:CoN
*  2021 07 30  6 15  0.00000000
PC06 -23120.149720  33232.432815 -12203.423386    689.892619
PC07  -8345.112766  34000.491943 -22794.621671     66.422846
PC08 -13465.362160  17850.192700  35803.696228   -912.083656
PC09 -11258.662424  32404.330633 -24502.332249    157.282369
PC10   1958.839048  39618.667725 -13312.502552    -13.593024
PC11 -23681.807922  13566.323634  -5643.776152    487.306367
PC12 -19512.083872  -1258.197676 -19871.547499    796.523276
PC13   1541.080557  23426.388115  35146.669291    355.100592
PC14 -14168.509073   9100.298216  22264.152253    762.591191
PC16 -21128.273133  33631.931425 -14358.399004   -889.083678
PC19   9509.713189 -19024.648287 -18053.606686    927.858807
PC20  15976.985998    -10.769801 -22864.595318   -831.681740
PC21 -13181.248929 -20102.077929  14211.102709   -937.632928
PC22  -2625.294280 -27675.975089  -2621.275608   -948.980287
PC23   4333.598231  17851.741013 -20991.881302   -964.837479
PC24 -26387.959068  -4111.001666  -8058.959209   -964.651119
PC25 -14857.026678  10649.548821 -21081.006996   -878.137843
PC26 -22402.608854 -14408.833703   8264.724723    871.629378
PC27  13005.095884   9702.444683  22680.382970    572.599403
PC28  -5140.421236  20264.689484  18477.917634    -44.602680
PC29  19501.415178 -19670.060007  -3420.023312    426.383609
PC30  23113.689481  -6880.175045  14018.823916    475.755349
PC32  13310.799166  20012.207849 -14156.108615   -927.115589
PC33  -9506.185734  18965.987916  18122.211732   -949.231087
PC34 -23323.285428   7489.481724 -13397.251680   -616.634415
PC35   4749.686541 -20585.328120 -18227.738234   -163.562638
PC36  15465.713470 -10068.187340  20964.468731   -737.623959
PC37  21505.508958  15297.061348  -9067.450771   -862.510403
PC38 -12185.220931  20843.503463  34553.288992    165.120843
PC39 -18491.805615  35023.627989 -14670.719716     32.696646
PC40  -2658.549046  38450.096657 -16888.046614    185.401835
PC41   2439.270932  27641.305119   3011.396871   -969.332842
PC42 -16158.847139   -956.666557  22774.192534   -925.425316
PC43 -19904.656317  19363.397731   2846.239358   -844.496098
PC44 -13281.308868  -9507.236231 -22641.534349    315.108258
PC45  -4556.539714 -17772.794601  21034.329763    506.980785
PC46  26199.568896   3301.689571   9086.089360    155.697778
PE01   -332.230407  21029.930419 -20819.721199  -1160.824052
PE02    217.424896 -21099.620015  20760.104273    236.404045
PE03   8638.731596 -28292.194411   1280.118507   -458.156807
PE04   5482.793337  22999.754434 -17798.352772   -824.108244
PE05  17920.756125 -17039.953057 -16267.877393   -261.241151
PE07 -16656.313714  -4021.453320  24143.836535   -567.699797
PE08  -5738.465315 -22711.428896  18107.876927   5962.289611
PE09  16604.848166   3655.666978 -24225.172472   5583.379470
PE11  27230.557163   1981.982720  11407.187827   5649.579039
PE12  11234.632851  13547.955576  23788.937064   5085.868542
PE13 -27038.404704  -2176.700260 -11851.584306    419.653007
PE14  14158.215874   5797.877732  18266.905233  -1517.797741
PE15 -11300.011243 -13430.263619 -23836.357761    800.752071
PE18 -15812.813976 -13224.795694 -24807.936746  -1664.024853
PE19 -10152.600089  27788.280729    959.411576    339.488466
PE21 -16003.696306   6391.183349 -24061.724153   -679.093715
PE24  23092.073190  13451.821002  12738.532976  -1035.218398
PE25  16145.332025  -6199.663246  24033.138203   -541.603028
PE26 -26424.228705  10734.551402   7900.004717   1520.724299
PE27 -23130.741667 -12575.592099 -13516.574309    -86.725451
PE30 -15790.784906 -24328.098423   5893.603445   2743.200584
PE31  16623.572084  23997.764631  -4867.682654   -483.824769
PE33 -11055.568661  16747.852260  21756.553726   -466.975074
PE36  26817.863750 -10332.874693  -7086.485447   -241.372959
PG01 -11313.496442 -13392.997723 -20328.442519    612.938680
PG02 -14005.679611  14101.121159  18305.212006   -623.012795
PG03 -11690.473536 -23706.321972  -3252.676209   -236.710770
PG04  -4040.252236 -18547.612296  18558.890865   -203.243702
PG05   3298.529677  22425.777249  13540.893907    -49.492051
PG06 -23680.004784   6997.721194   9916.267314     47.756973
PG07 -23641.360653  -7322.782201  10652.079045    213.906028
PG08   4117.595939 -23754.915761 -10800.731564    -30.679922
PG09 -13056.869190  -8099.001822  21602.781691   -357.263311
PG10  17452.224633   2588.878480 -19821.356899   -172.186774
PG11 -15666.000958  11882.733521  17836.877789     26.164399
PG12   9731.056809  24558.455700  -3642.942135    -75.704208
PG13 -12452.160675  22827.832808  -5156.678045    164.426120
PG14 -17332.646559  -2289.102504 -20012.710817     35.514215
PG15   -754.349423  24064.900467 -11193.273186   -131.983411
PG16   3984.303159 -19116.966894  17539.750626   -365.342950
PG17 -18180.758641   6428.432753 -17838.246266    481.539982
PG18  24763.567334   5530.069464   7976.472533    337.159867
PG19 -19398.670836  13690.902980 -12029.826749     32.942144
PG20  -6240.851062  15865.565213  20391.472924    519.922157
PG21  -3031.173201 -14716.309548 -21224.796759    134.282331
PG22  -7859.153607 -23184.916773 -10372.674938   -550.954314
PG23  19089.869101  13374.730282 -12813.927146     77.701305
PG24   6591.185527  15086.753217 -21148.969780    192.143855
PG25  16985.156318  19540.505514   6259.504845    182.346827
PG26  11896.980978 -10214.334287  21364.641542    116.632884
PG27  11894.697901 -23493.359712  -1356.532272   -170.636051
PG28 -14420.878963   3749.975290 -21428.419613    528.985148
PG29  10637.645974  10417.297120  21940.668653   -388.238014
PG30 -26634.103662    922.142797  -1414.387688   -456.550191
PG31  22986.271939  -7803.085828  11218.240611   -131.452858
PG32  18354.895195  -9801.570355 -16290.746345     11.124949
PJ01 -27949.722881  26187.390715  22562.130264   -427.174802
PJ02 -23183.474420  17293.301571 -26159.508421     -1.143165
PJ03 -28455.500782  30967.607184   7482.521923     -0.432470
PR01 -10733.812187  -5902.958225  22377.554696     83.059404
PR02  -8935.877934  16006.806257  17807.390512    487.902633
PR03  -1852.756206  25355.692226   2441.783636     40.414504
PR04   6017.619405  20339.396765 -14147.338611     98.046557
PR05  10561.753365   4094.690842 -22845.801745     76.250347
PR07   1497.374775 -25386.039862  -1635.574831    -41.839745
PR08  -6203.678522 -20233.100061  14280.388662    -60.135603
PR09  13228.991807  -4399.867671  21365.005353      5.494436
PR11 -17974.038088 -15644.000132   9140.984230     45.373163
PR12 -22266.157959  -8445.848338  -9089.713280    249.471104
PR13 -13796.051227   3587.105025 -21163.261736    -58.421050
PR14   3526.046315  13999.168855 -21006.322818     67.061098
PR15  18094.045941  15820.829831  -8508.358380    102.400582
PR16  22358.089721   7188.840831  10093.407022    -18.700263
PR17  -9836.660226  14730.847154  18336.028852    445.432901
PR18   6729.114967   8221.396716  23195.254940     85.173509
PR19  19485.068988  -1559.768442  16386.512196   -153.467460
PR20  22224.296443 -12231.852198  -2484.557295    -53.290055
PR21   8805.044960 -14427.667887 -19124.473838   -227.674051
PR22  -7769.583001  -7580.890632 -23110.411502   -125.245570
PR24 -21744.905868  12927.974676   3198.446111     52.487538
EOF
